CCSDS_OMM_VERS = 2.0
CREATION_DATE  = 
ORIGINATOR     = 

OBJECT_NAME    = SL-16 R/B
OBJECT_ID      = 1996-051B
CENTER_NAME    = EARTH
REF_FRAME      = TEME
TIME_SYSTEM    = UTC
MEAN_ELEMENT_THEORY = SGP/SGP4

EPOCH          = 2025-11-05T02:16:02.797248
MEAN_MOTION    = 14.12392175
ECCENTRICITY   = .00176314
INCLINATION    = 70.7592
RA_OF_ASC_NODE = 78.9620
ARG_OF_PERICENTER = 309.2885
MEAN_ANOMALY   = 50.6671

EPHEMERIS_TYPE = 0
CLASSIFICATION_TYPE = U
NORAD_CAT_ID   = 24298
ELEMENT_SET_NO = 999
REV_AT_EPOCH   = 50405
BSTAR          = -.23497445E-4
MEAN_MOTION_DOT = -.93E-6
MEAN_MOTION_DDOT = 0

CCSDS_OMM_VERS = 2.0
CREATION_DATE  = 
ORIGINATOR     = 

OBJECT_NAME    = ORBVIEW 2 (SEASTAR)
OBJECT_ID      = 1997-037A
CENTER_NAME    = EARTH
REF_FRAME      = TEME
TIME_SYSTEM    = UTC
MEAN_ELEMENT_THEORY = SGP/SGP4

EPOCH          = 2025-11-05T03:13:13.756800
MEAN_MOTION    = 14.35371883
ECCENTRICITY   = .00031797
INCLINATION    = 98.8444
RA_OF_ASC_NODE = 105.2673
ARG_OF_PERICENTER = 75.7336
MEAN_ANOMALY   = 284.4201

EPHEMERIS_TYPE = 0
CLASSIFICATION_TYPE = U
NORAD_CAT_ID   = 24883
ELEMENT_SET_NO = 999
REV_AT_EPOCH   = 49060
BSTAR          = .12712291E-3
MEAN_MOTION_DOT = .318E-5
MEAN_MOTION_DDOT = 0

CCSDS_OMM_VERS = 2.0
CREATION_DATE  = 
ORIGINATOR     = 

OBJECT_NAME    = SL-16 R/B
OBJECT_ID      = 1998-043G
CENTER_NAME    = EARTH
REF_FRAME      = TEME
TIME_SYSTEM    = UTC
MEAN_ELEMENT_THEORY = SGP/SGP4

EPOCH          = 2025-11-05T02:52:33.449376
MEAN_MOTION    = 14.26010707
ECCENTRICITY   = .00102664
INCLINATION    = 98.8059
RA_OF_ASC_NODE = 256.7397
ARG_OF_PERICENTER = 21.7555
MEAN_ANOMALY   = 338.4058

EPHEMERIS_TYPE = 0
CLASSIFICATION_TYPE = U
NORAD_CAT_ID   = 25400
ELEMENT_SET_NO = 999
REV_AT_EPOCH   = 42123
BSTAR          = .52734515E-4
MEAN_MOTION_DOT = .81E-6
MEAN_MOTION_DDOT = 0

CCSDS_OMM_VERS = 2.0
CREATION_DATE  = 
ORIGINATOR     = 

OBJECT_NAME    = SL-16 R/B
OBJECT_ID      = 1998-045B
CENTER_NAME    = EARTH
REF_FRAME      = TEME
TIME_SYSTEM    = UTC
MEAN_ELEMENT_THEORY = SGP/SGP4

EPOCH          = 2025-11-05T02:48:07.344288
MEAN_MOTION    = 14.16167783
ECCENTRICITY   = .00089373
INCLINATION    = 71.0106
RA_OF_ASC_NODE = 83.5429
ARG_OF_PERICENTER = 227.6835
MEAN_ANOMALY   = 132.3532

EPHEMERIS_TYPE = 0
CLASSIFICATION_TYPE = U
NORAD_CAT_ID   = 25407
ELEMENT_SET_NO = 999
REV_AT_EPOCH   = 40946
BSTAR          = .10900679E-3
MEAN_MOTION_DOT = .168E-5
MEAN_MOTION_DDOT = 0

CCSDS_OMM_VERS = 2.0
CREATION_DATE  = 
ORIGINATOR     = 

OBJECT_NAME    = ISS (ZARYA)
OBJECT_ID      = 1998-067A
CENTER_NAME    = EARTH
REF_FRAME      = TEME
TIME_SYSTEM    = UTC
MEAN_ELEMENT_THEORY = SGP/SGP4

EPOCH          = 2025-11-04T22:31:02.465472
MEAN_MOTION    = 15.49755997
ECCENTRICITY   = .0005046
INCLINATION    = 51.6335
RA_OF_ASC_NODE = 329.6155
ARG_OF_PERICENTER = 18.0946
MEAN_ANOMALY   = 342.0222

EPHEMERIS_TYPE = 0
CLASSIFICATION_TYPE = U
NORAD_CAT_ID   = 25544
ELEMENT_SET_NO = 999
REV_AT_EPOCH   = 53699
BSTAR          = .19940879E-3
MEAN_MOTION_DOT = .10846E-3
MEAN_MOTION_DDOT = 0

CCSDS_OMM_VERS = 2.0
CREATION_DATE  = 
ORIGINATOR     = 

OBJECT_NAME    = CZ-4B R/B
OBJECT_ID      = 1999-025C
CENTER_NAME    = EARTH
REF_FRAME      = TEME
TIME_SYSTEM    = UTC
MEAN_ELEMENT_THEORY = SGP/SGP4

EPOCH          = 2025-11-05T03:32:14.544384
MEAN_MOTION    = 14.18229000
ECCENTRICITY   = .00367578
INCLINATION    = 98.6827
RA_OF_ASC_NODE = 351.2575
ARG_OF_PERICENTER = 344.7886
MEAN_ANOMALY   = 82.7392

EPHEMERIS_TYPE = 0
CLASSIFICATION_TYPE = U
NORAD_CAT_ID   = 25732
ELEMENT_SET_NO = 999
REV_AT_EPOCH   = 37051
BSTAR          = .60029244E-4
MEAN_MOTION_DOT = .81E-6
MEAN_MOTION_DDOT = 0

CCSDS_OMM_VERS = 2.0
CREATION_DATE  = 
ORIGINATOR     = 

OBJECT_NAME    = OKEAN-O
OBJECT_ID      = 1999-039A
CENTER_NAME    = EARTH
REF_FRAME      = TEME
TIME_SYSTEM    = UTC
MEAN_ELEMENT_THEORY = SGP/SGP4

EPOCH          = 2025-11-05T03:13:35.907168
MEAN_MOTION    = 14.80062522
ECCENTRICITY   = .00016599
INCLINATION    = 97.9657
RA_OF_ASC_NODE = 5.1526
ARG_OF_PERICENTER = 72.5196
MEAN_ANOMALY   = 287.6197

EPHEMERIS_TYPE = 0
CLASSIFICATION_TYPE = U
NORAD_CAT_ID   = 25860
ELEMENT_SET_NO = 999
REV_AT_EPOCH   = 41596
BSTAR          = .11615116E-3
MEAN_MOTION_DOT = .828E-5
MEAN_MOTION_DDOT = 0

CCSDS_OMM_VERS = 2.0
CREATION_DATE  = 
ORIGINATOR     = 

OBJECT_NAME    = SL-16 R/B
OBJECT_ID      = 1999-039B
CENTER_NAME    = EARTH
REF_FRAME      = TEME
TIME_SYSTEM    = UTC
MEAN_ELEMENT_THEORY = SGP/SGP4

EPOCH          = 2025-11-05T03:58:49.396800
MEAN_MOTION    = 14.81502537
ECCENTRICITY   = .00136907
INCLINATION    = 98.0181
RA_OF_ASC_NODE = 3.3048
ARG_OF_PERICENTER = 304.5460
MEAN_ANOMALY   = 55.4459

EPHEMERIS_TYPE = 0
CLASSIFICATION_TYPE = U
NORAD_CAT_ID   = 25861
ELEMENT_SET_NO = 999
REV_AT_EPOCH   = 41842
BSTAR          = .10099304E-3
MEAN_MOTION_DOT = .738E-5
MEAN_MOTION_DDOT = 0

CCSDS_OMM_VERS = 2.0
CREATION_DATE  = 
ORIGINATOR     = 

OBJECT_NAME    = DELTA 2 R/B
OBJECT_ID      = 1999-041E
CENTER_NAME    = EARTH
REF_FRAME      = TEME
TIME_SYSTEM    = UTC
MEAN_ELEMENT_THEORY = SGP/SGP4

EPOCH          = 2025-11-04T18:08:23.062272
MEAN_MOTION    = 14.11263802
ECCENTRICITY   = .05047426
INCLINATION    = 51.7635
RA_OF_ASC_NODE = 80.0508
ARG_OF_PERICENTER = 339.8296
MEAN_ANOMALY   = 18.3307

EPHEMERIS_TYPE = 0
CLASSIFICATION_TYPE = U
NORAD_CAT_ID   = 25876
ELEMENT_SET_NO = 999
REV_AT_EPOCH   = 34538
BSTAR          = .19129575E-3
MEAN_MOTION_DOT = .946E-5
MEAN_MOTION_DDOT = 0

CCSDS_OMM_VERS = 2.0
CREATION_DATE  = 
ORIGINATOR     = 

OBJECT_NAME    = HELIOS 1B
OBJECT_ID      = 1999-064A
CENTER_NAME    = EARTH
REF_FRAME      = TEME
TIME_SYSTEM    = UTC
MEAN_ELEMENT_THEORY = SGP/SGP4

EPOCH          = 2025-11-05T06:13:53.361696
MEAN_MOTION    = 14.87043158
ECCENTRICITY   = .00025313
INCLINATION    = 98.1759
RA_OF_ASC_NODE = 202.8192
ARG_OF_PERICENTER = 93.8111
MEAN_ANOMALY   = 266.3394

EPHEMERIS_TYPE = 0
CLASSIFICATION_TYPE = U
NORAD_CAT_ID   = 25977
ELEMENT_SET_NO = 999
REV_AT_EPOCH   = 66676
BSTAR          = .28008192E-3
MEAN_MOTION_DOT = .2453E-4
MEAN_MOTION_DDOT = 0

CCSDS_OMM_VERS = 2.0
CREATION_DATE  = 
ORIGINATOR     = 

OBJECT_NAME    = TERRA
OBJECT_ID      = 1999-068A
CENTER_NAME    = EARTH
REF_FRAME      = TEME
TIME_SYSTEM    = UTC
MEAN_ELEMENT_THEORY = SGP/SGP4

EPOCH          = 2025-11-05T06:35:25.160064
MEAN_MOTION    = 14.60884649
ECCENTRICITY   = .00018479
INCLINATION    = 97.9803
RA_OF_ASC_NODE = 2.3224
ARG_OF_PERICENTER = 181.6883
MEAN_ANOMALY   = 266.3930

EPHEMERIS_TYPE = 0
CLASSIFICATION_TYPE = U
NORAD_CAT_ID   = 25994
ELEMENT_SET_NO = 999
REV_AT_EPOCH   = 37691
BSTAR          = .13694822E-3
MEAN_MOTION_DOT = .625E-5
MEAN_MOTION_DDOT = 0

CCSDS_OMM_VERS = 2.0
CREATION_DATE  = 
ORIGINATOR     = 

OBJECT_NAME    = SL-16 R/B
OBJECT_ID      = 2000-006B
CENTER_NAME    = EARTH
REF_FRAME      = TEME
TIME_SYSTEM    = UTC
MEAN_ELEMENT_THEORY = SGP/SGP4

EPOCH          = 2025-11-05T05:47:20.467968
MEAN_MOTION    = 14.15800566
ECCENTRICITY   = .00163737
INCLINATION    = 71.0043
RA_OF_ASC_NODE = 359.5045
ARG_OF_PERICENTER = 2.7763
MEAN_ANOMALY   = 357.3448

EPHEMERIS_TYPE = 0
CLASSIFICATION_TYPE = U
NORAD_CAT_ID   = 26070
ELEMENT_SET_NO = 999
REV_AT_EPOCH   = 33094
BSTAR          = .13344529E-3
MEAN_MOTION_DOT = .215E-5
MEAN_MOTION_DDOT = 0

