SL-16 R/B               
1 24298U 96051B   25309.09447682 -.00000093  00000+0 -23497-4 0  9997
2 24298  70.7592  78.9620 0017631 309.2885  50.6671 14.12392175504056
ORBVIEW 2 (SEASTAR)     
1 24883U 97037A   25309.13418700  .00000318  00000+0  12712-3 0  9991
2 24883  98.8444 105.2673 0003179  75.7336 284.4201 14.35371883490602
SL-16 R/B               
1 25400U 98043G   25309.11983159  .00000081  00000+0  52735-4 0  9995
2 25400  98.8059 256.7397 0010266  21.7555 338.4058 14.26010707421232
SL-16 R/B               
1 25407U 98045B   25309.11675167  .00000168  00000+0  10901-3 0  9995
2 25407  71.0106  83.5429 0008937 227.6835 132.3532 14.16167783409462
ISS (ZARYA)             
1 25544U 98067A   25308.93822298  .00010846  00000+0  19941-3 0  9996
2 25544  51.6335 329.6155 0005046  18.0946 342.0222 15.49755997536997
CZ-4B R/B               
1 25732U 99025C   25309.14739056  .00000081  00000+0  60029-4 0  9997
2 25732  98.6827 351.2575 0036757 344.7886  82.7392 14.18229000370511
OKEAN-O                 
1 25860U 99039A   25309.13444337  .00000828  00000+0  11615-3 0  9993
2 25860  97.9657   5.1526 0001659  72.5196 287.6197 14.80062522415961
SL-16 R/B               
1 25861U 99039B   25309.16584950  .00000738  00000+0  10099-3 0  9998
2 25861  98.0181   3.3048 0013690 304.5460  55.4459 14.81502537418427
DELTA 2 R/B             
1 25876U 99041E   25308.75582248  .00000946  00000+0  19130-3 0  9995
2 25876  51.7635  80.0508 0504742 339.8296  18.3307 14.11263802345383
HELIOS 1B               
1 25977U 99064A   25309.25964539  .00002453  00000+0  28008-3 0  9994
2 25977  98.1759 202.8192 0002531  93.8111 266.3394 14.87043158666764
TERRA                   
1 25994U 99068A   25309.27459676  .00000625  00000+0  13695-3 0  9995
2 25994  97.9803   2.3224 0001847 181.6883 266.3930 14.60884649376910
SL-16 R/B               
1 26070U 00006B   25309.24120912  .00000215  00000+0  13345-3 0  9997
2 26070  71.0043 359.5045 0016373   2.7763 357.3448 14.15800566330947
